{"fetched_at":"2026-07-17T17:38:01.871Z","source":"https://celestrak.org/NORAD/elements/gp.php?GROUP=stations&FORMAT=JSON","constellation":"tiangong","records":[{"OBJECT_NAME":"CSS (TIANHE)","OBJECT_ID":"2021-035A","EPOCH":"2026-07-17T06:23:04.742304","CLASSIFICATION_TYPE":"U","MEAN_MOTION":15.58142333,"ECCENTRICITY":0.00019631,"INCLINATION":41.4689,"RA_OF_ASC_NODE":139.2812,"ARG_OF_PERICENTER":303.2337,"MEAN_ANOMALY":56.8313,"EPHEMERIS_TYPE":0,"NORAD_CAT_ID":48274,"ELEMENT_SET_NO":999,"REV_AT_EPOCH":29786,"BSTAR":0.000019326917,"MEAN_MOTION_DOT":0.00001169,"MEAN_MOTION_DDOT":0}]}
